[{"OBJECT_NAME":"STARLINK-31651","OBJECT_ID":"2024-098C","EPOCH":"2026-03-09T00:26:39.628608","MEAN_MOTION":15.27560792,"ECCENTRICITY":8.768e-5,"INCLINATION":42.998,"RA_OF_ASC_NODE":281.7759,"ARG_OF_PERICENTER":256.3852,"MEAN_ANOMALY":103.6902,"EPHEMERIS_TYPE":0,"CLASSIFICATION_TYPE":"U","NORAD_CAT_ID":59860,"ELEMENT_SET_NO":999,"REV_AT_EPOCH":10174,"BSTAR":0.00014193908,"MEAN_MOTION_DOT":3.644e-5,"MEAN_MOTION_DDOT":0},{"OBJECT_NAME":"GEOSCAN 1 (RS92S1)","OBJECT_ID":"2025-155E","EPOCH":"2026-03-09T22:44:05.846496","MEAN_MOTION":15.28410635,"ECCENTRICITY":0.00087099,"INCLINATION":97.4463,"RA_OF_ASC_NODE":37.403,"ARG_OF_PERICENTER":153.6429,"MEAN_ANOMALY":206.5255,"EPHEMERIS_TYPE":0,"CLASSIFICATION_TYPE":"U","NORAD_CAT_ID":64880,"ELEMENT_SET_NO":999,"REV_AT_EPOCH":6560,"BSTAR":0.00054367431,"MEAN_MOTION_DOT":0.00014993,"MEAN_MOTION_DDOT":0}]
